[{"OBJECT_NAME":"TEN-KOH 2","OBJECT_ID":"2025-241B","EPOCH":"2026-04-05T14:15:22.626432","MEAN_MOTION":15.22936069,"ECCENTRICITY":0.00046562,"INCLINATION":51.6398,"RA_OF_ASC_NODE":304.9498,"ARG_OF_PERICENTER":256.8131,"MEAN_ANOMALY":103.2327,"EPHEMERIS_TYPE":0,"CLASSIFICATION_TYPE":"U","NORAD_CAT_ID":68261,"ELEMENT_SET_NO":999,"REV_AT_EPOCH":384,"BSTAR":0.00044373809,"MEAN_MOTION_DOT":0.00010241,"MEAN_MOTION_DDOT":0},{"OBJECT_NAME":"STARLINK-37162","OBJECT_ID":"2026-055A","EPOCH":"2026-04-05T14:00:03.000384","MEAN_MOTION":15.80900276,"ECCENTRICITY":6.296e-5,"INCLINATION":53.1587,"RA_OF_ASC_NODE":202.5185,"ARG_OF_PERICENTER":124.6943,"MEAN_ANOMALY":288.4419,"EPHEMERIS_TYPE":0,"CLASSIFICATION_TYPE":"U","NORAD_CAT_ID":68262,"ELEMENT_SET_NO":999,"REV_AT_EPOCH":395,"BSTAR":-0.00027331994,"MEAN_MOTION_DOT":-0.00054369,"MEAN_MOTION_DDOT":0},{"OBJECT_NAME":"STARLINK-37156","OBJECT_ID":"2026-055B","EPOCH":"2026-04-05T14:00:03.000384","MEAN_MOTION":15.80885699,"ECCENTRICITY":0.00015718,"INCLINATION":53.1588,"RA_OF_ASC_NODE":202.5097,"ARG_OF_PERICENTER":111.9286,"MEAN_ANOMALY":305.4869,"EPHEMERIS_TYPE":0,"CLASSIFICATION_TYPE":"U","NORAD_CAT_ID":68263,"ELEMENT_SET_NO":999,"REV_AT_EPOCH":395,"BSTAR":-0.00016747765,"MEAN_MOTION_DOT":-0.00033647,"MEAN_MOTION_DDOT":0},{"OBJECT_NAME":"STARLINK-37163","OBJECT_ID":"2026-055C","EPOCH":"2026-04-05T14:00:03.000384","MEAN_MOTION":15.8088907,"ECCENTRICITY":3.894e-5,"INCLINATION":53.1587,"RA_OF_ASC_NODE":202.4913,"ARG_OF_PERICENTER":120.1876,"MEAN_ANOMALY":305.7675,"EPHEMERIS_TYPE":0,"CLASSIFICATION_TYPE":"U","NORAD_CAT_ID":68264,"ELEMENT_SET_NO":999,"REV_AT_EPOCH":395,"BSTAR":-0.00019054314,"MEAN_MOTION_DOT":-0.00038164,"MEAN_MOTION_DDOT":0},{"OBJECT_NAME":"STARLINK-37133","OBJECT_ID":"2026-055D","EPOCH":"2026-04-05T14:00:03.000384","MEAN_MOTION":15.80887067,"ECCENTRICITY":8.046e-5,"INCLINATION":53.1587,"RA_OF_ASC_NODE":202.5004,"ARG_OF_PERICENTER":127.836,"MEAN_ANOMALY":293.8542,"EPHEMERIS_TYPE":0,"CLASSIFICATION_TYPE":"U","NORAD_CAT_ID":68265,"ELEMENT_SET_NO":999,"REV_AT_EPOCH":395,"BSTAR":-0.00025236949,"MEAN_MOTION_DOT":-0.0005025,"MEAN_MOTION_DDOT":0},{"OBJECT_NAME":"STARLINK-37042","OBJECT_ID":"2026-055E","EPOCH":"2026-04-05T14:00:03.000384","MEAN_MOTION":15.80885282,"ECCENTRICITY":0.00015748,"INCLINATION":53.1588,"RA_OF_ASC_NODE":202.4827,"ARG_OF_PERICENTER":88.025,"MEAN_ANOMALY":342.2052,"EPHEMERIS_TYPE":0,"CLASSIFICATION_TYPE":"U","NORAD_CAT_ID":68266,"ELEMENT_SET_NO":999,"REV_AT_EPOCH":395,"BSTAR":-0.00017335903,"MEAN_MOTION_DOT":-0.00034799,"MEAN_MOTION_DDOT":0},{"OBJECT_NAME":"STARLINK-37103","OBJECT_ID":"2026-055F","EPOCH":"2026-04-05T14:00:03.000384","MEAN_MOTION":15.80872154,"ECCENTRICITY":0.00011294,"INCLINATION":53.1586,"RA_OF_ASC_NODE":202.474,"ARG_OF_PERICENTER":93.3219,"MEAN_ANOMALY":341.1856,"EPHEMERIS_TYPE":0,"CLASSIFICATION_TYPE":"U","NORAD_CAT_ID":68267,"ELEMENT_SET_NO":999,"REV_AT_EPOCH":395,"BSTAR":-8.4438385e-5,"MEAN_MOTION_DOT":-0.0001733,"MEAN_MOTION_DDOT":0},{"OBJECT_NAME":"STARLINK-36999","OBJECT_ID":"2026-055G","EPOCH":"2026-04-05T14:00:03.000384","MEAN_MOTION":15.80870684,"ECCENTRICITY":0.00010575,"INCLINATION":53.1586,"RA_OF_ASC_NODE":202.4651,"ARG_OF_PERICENTER":102.179,"MEAN_ANOMALY":336.6013,"EPHEMERIS_TYPE":0,"CLASSIFICATION_TYPE":"U","NORAD_CAT_ID":68268,"ELEMENT_SET_NO":999,"REV_AT_EPOCH":395,"BSTAR":-0.00010825547,"MEAN_MOTION_DOT":-0.00022008,"MEAN_MOTION_DDOT":0},{"OBJECT_NAME":"STARLINK-36962","OBJECT_ID":"2026-055H","EPOCH":"2026-04-05T14:00:03.000384","MEAN_MOTION":15.80885919,"ECCENTRICITY":7.471e-5,"INCLINATION":53.1586,"RA_OF_ASC_NODE":202.4562,"ARG_OF_PERICENTER":99.9442,"MEAN_ANOMALY":343.1062,"EPHEMERIS_TYPE":0,"CLASSIFICATION_TYPE":"U","NORAD_CAT_ID":68269,"ELEMENT_SET_NO":999,"REV_AT_EPOCH":395,"BSTAR":-0.00025339248,"MEAN_MOTION_DOT":-0.00050446,"MEAN_MOTION_DDOT":0},{"OBJECT_NAME":"STARLINK-37028","OBJECT_ID":"2026-055J","EPOCH":"2026-04-05T14:00:03.000384","MEAN_MOTION":15.80908883,"ECCENTRICITY":3.572e-5,"INCLINATION":53.1585,"RA_OF_ASC_NODE":202.4383,"ARG_OF_PERICENTER":73.181,"MEAN_ANOMALY":18.4123,"EPHEMERIS_TYPE":0,"CLASSIFICATION_TYPE":"U","NORAD_CAT_ID":68270,"ELEMENT_SET_NO":999,"REV_AT_EPOCH":395,"BSTAR":-0.00051207323,"MEAN_MOTION_DOT":-0.00100753,"MEAN_MOTION_DDOT":0},{"OBJECT_NAME":"STARLINK-37029","OBJECT_ID":"2026-055K","EPOCH":"2026-04-05T14:00:03.000384","MEAN_MOTION":15.80864741,"ECCENTRICITY":0.00016155,"INCLINATION":53.1585,"RA_OF_ASC_NODE":202.4474,"ARG_OF_PERICENTER":44.6031,"MEAN_ANOMALY":42.7271,"EPHEMERIS_TYPE":0,"CLASSIFICATION_TYPE":"U","NORAD_CAT_ID":68271,"ELEMENT_SET_NO":999,"REV_AT_EPOCH":395,"BSTAR":-0.00011061261,"MEAN_MOTION_DOT":-0.00022467,"MEAN_MOTION_DDOT":0},{"OBJECT_NAME":"STARLINK-36974","OBJECT_ID":"2026-055L","EPOCH":"2026-04-05T14:00:03.000384","MEAN_MOTION":15.80976361,"ECCENTRICITY":0.00016943,"INCLINATION":53.1584,"RA_OF_ASC_NODE":202.4293,"ARG_OF_PERICENTER":76.6934,"MEAN_ANOMALY":19.1958,"EPHEMERIS_TYPE":0,"CLASSIFICATION_TYPE":"U","NORAD_CAT_ID":68272,"ELEMENT_SET_NO":999,"REV_AT_EPOCH":395,"BSTAR":-0.0013894116,"MEAN_MOTION_DOT":-0.00267911,"MEAN_MOTION_DDOT":0},{"OBJECT_NAME":"STARLINK-37019","OBJECT_ID":"2026-055M","EPOCH":"2026-04-05T14:00:03.000384","MEAN_MOTION":15.80863902,"ECCENTRICITY":0.00017245,"INCLINATION":53.1585,"RA_OF_ASC_NODE":202.4198,"ARG_OF_PERICENTER":103.9821,"MEAN_ANOMALY":356.1623,"EPHEMERIS_TYPE":0,"CLASSIFICATION_TYPE":"U","NORAD_CAT_ID":68273,"ELEMENT_SET_NO":999,"REV_AT_EPOCH":395,"BSTAR":-9.6839737e-5,"MEAN_MOTION_DOT":-0.00019763,"MEAN_MOTION_DDOT":0},{"OBJECT_NAME":"STARLINK-37129","OBJECT_ID":"2026-055N","EPOCH":"2026-04-05T14:00:03.000384","MEAN_MOTION":15.80879796,"ECCENTRICITY":0.00017657,"INCLINATION":53.1584,"RA_OF_ASC_NODE":202.4112,"ARG_OF_PERICENTER":49.2066,"MEAN_ANOMALY":55.2117,"EPHEMERIS_TYPE":0,"CLASSIFICATION_TYPE":"U","NORAD_CAT_ID":68274,"ELEMENT_SET_NO":999,"REV_AT_EPOCH":395,"BSTAR":-0.00028158555,"MEAN_MOTION_DOT":-0.0005594,"MEAN_MOTION_DDOT":0},{"OBJECT_NAME":"STARLINK-37123","OBJECT_ID":"2026-055P","EPOCH":"2026-04-05T14:00:03.000384","MEAN_MOTION":15.80864537,"ECCENTRICITY":0.00019426,"INCLINATION":53.1586,"RA_OF_ASC_NODE":202.4026,"ARG_OF_PERICENTER":100.0374,"MEAN_ANOMALY":8.6484,"EPHEMERIS_TYPE":0,"CLASSIFICATION_TYPE":"U","NORAD_CAT_ID":68275,"ELEMENT_SET_NO":999,"REV_AT_EPOCH":395,"BSTAR":-0.00011434964,"MEAN_MOTION_DOT":-0.00023202,"MEAN_MOTION_DDOT":0},{"OBJECT_NAME":"STARLINK-37125","OBJECT_ID":"2026-055Q","EPOCH":"2026-04-05T14:00:03.000384","MEAN_MOTION":15.80869338,"ECCENTRICITY":0.00010538,"INCLINATION":53.1585,"RA_OF_ASC_NODE":202.3936,"ARG_OF_PERICENTER":99.7422,"MEAN_ANOMALY":13.2127,"EPHEMERIS_TYPE":0,"CLASSIFICATION_TYPE":"U","NORAD_CAT_ID":68276,"ELEMENT_SET_NO":999,"REV_AT_EPOCH":395,"BSTAR":-0.00013569688,"MEAN_MOTION_DOT":-0.00027391,"MEAN_MOTION_DDOT":0}]
