TEN-KOH 2               
1 68261U 25241B   26095.59401188  .00010241  00000+0  44374-3 0  9997
2 68261  51.6398 304.9498 0004656 256.8131 103.2327 15.22936069  3847
STARLINK-37162          
1 68262U 26055A   26095.58336806 -.00054369  00000+0 -27332-3 0  9991
2 68262  53.1587 202.5185 0000629 124.6943 288.4419 15.80900276  3955
STARLINK-37156          
1 68263U 26055B   26095.58336806 -.00033647  00000+0 -16748-3 0  9997
2 68263  53.1588 202.5097 0001571 111.9286 305.4869 15.80885699  3955
STARLINK-37163          
1 68264U 26055C   26095.58336806 -.00038164  00000+0 -19054-3 0  9990
2 68264  53.1587 202.4913 0000389 120.1876 305.7675 15.80889070  3959
STARLINK-37133          
1 68265U 26055D   26095.58336806 -.00050250  00000+0 -25237-3 0  9991
2 68265  53.1587 202.5004 0000804 127.8360 293.8542 15.80887067  3950
STARLINK-37042          
1 68266U 26055E   26095.58336806 -.00034799  00000+0 -17336-3 0  9993
2 68266  53.1588 202.4827 0001574  88.0250 342.2052 15.80885282  3957
STARLINK-37103          
1 68267U 26055F   26095.58336806 -.00017330  00000+0 -84438-4 0  9994
2 68267  53.1586 202.4740 0001129  93.3219 341.1856 15.80872154  3954
STARLINK-36999          
1 68268U 26055G   26095.58336806 -.00022008  00000+0 -10826-3 0  9992
2 68268  53.1586 202.4651 0001057 102.1790 336.6013 15.80870684  3959
STARLINK-36962          
1 68269U 26055H   26095.58336806 -.00050446  00000+0 -25339-3 0  9995
2 68269  53.1586 202.4562 0000747  99.9442 343.1062 15.80885919  3957
STARLINK-37028          
1 68270U 26055J   26095.58336806 -.00100753  00000+0 -51207-3 0  9997
2 68270  53.1585 202.4383 0000357  73.1810  18.4123 15.80908883  3955
STARLINK-37029          
1 68271U 26055K   26095.58336806 -.00022467  00000+0 -11061-3 0  9997
2 68271  53.1585 202.4474 0001615  44.6031  42.7271 15.80864741  3951
STARLINK-36974          
1 68272U 26055L   26095.58336806 -.00267911  00000+0 -13894-2 0  9998
2 68272  53.1584 202.4293 0001694  76.6934  19.1958 15.80976361  3956
STARLINK-37019          
1 68273U 26055M   26095.58336806 -.00019763  00000+0 -96840-4 0  9993
2 68273  53.1585 202.4198 0001724 103.9821 356.1623 15.80863902  3954
STARLINK-37129          
1 68274U 26055N   26095.58336806 -.00055940  00000+0 -28159-3 0  9998
2 68274  53.1584 202.4112 0001765  49.2066  55.2117 15.80879796  3951
STARLINK-37123          
1 68275U 26055P   26095.58336806 -.00023202  00000+0 -11435-3 0  9994
2 68275  53.1586 202.4026 0001942 100.0374   8.6484 15.80864537  3959
STARLINK-37125          
1 68276U 26055Q   26095.58336806 -.00027391  00000+0 -13570-3 0  9990
2 68276  53.1585 202.3936 0001053  99.7422  13.2127 15.80869338  3959
